{
  "type": "FeatureCollection",
  "features": [
    {
      "type": "Feature",
      "properties": {
        "norad_id": 30405,
        "name": "FENGYUN 1C DEB",
        "group": "fengyun-1c-debris",
        "lat": 54.13928898468842,
        "lon": 65.57782254601459,
        "alt_km": 800.6150775730757,
        "timestamp": "2025-12-09T23:33:24.130867+00:00",
        "meta_object_name": "FENGYUN 1C DEB",
        "meta_object_id": "1999-025ADU",
        "meta_epoch": "2025-12-09T13:17:29.150304",
        "meta_mean_motion": 14.2887257,
        "meta_eccentricity": 0.00515115,
        "meta_inclination": 98.7939,
        "meta_ra_of_asc_node": 77.5126,
        "meta_arg_of_pericenter": 162.8439,
        "meta_mean_anomaly": 213.9565,
        "meta_ephemeris_type": 0,
        "meta_classification_type": "U",
        "meta_norad_cat_id": 30405,
        "meta_element_set_no": 999,
        "meta_rev_at_epoch": 97350,
        "meta_bstar": 0.0027757988,
        "meta_mean_motion_dot": 7.067e-05,
        "meta_mean_motion_ddot": 0,
        "tle_line1": "1 30405U 99025ADU 25343.55380961  .00007067  00000+0  27758-2 0  9991",
        "tle_line2": "2 30405  98.7939  77.5126 0051511 162.8439 213.9565 14.28872570973502"
      },
      "geometry": {
        "type": "Point",
        "coordinates": [
          65.57782254601459,
          54.13928898468842
        ]
      }
    },
    {
      "type": "Feature",
      "properties": {
        "norad_id": 30406,
        "name": "FENGYUN 1C DEB",
        "group": "fengyun-1c-debris",
        "lat": -12.10417235941188,
        "lon": -123.16333443070148,
        "alt_km": 843.8021202877353,
        "timestamp": "2025-12-09T23:33:24.130877+00:00",
        "meta_object_name": "FENGYUN 1C DEB",
        "meta_object_id": "1999-025ADV",
        "meta_epoch": "2025-12-09T12:07:57.343584",
        "meta_mean_motion": 13.59193496,
        "meta_eccentricity": 0.02830968,
        "meta_inclination": 98.62,
        "meta_ra_of_asc_node": 234.5532,
        "meta_arg_of_pericenter": 8.191,
        "meta_mean_anomaly": 172.8241,
        "meta_ephemeris_type": 0,
        "meta_classification_type": "U",
        "meta_norad_cat_id": 30406,
        "meta_element_set_no": 999,
        "meta_rev_at_epoch": 93122,
        "meta_bstar": 0.0035302827,
        "meta_mean_motion_dot": 3.347e-05,
        "meta_mean_motion_ddot": 0,
        "tle_line1": "1 30406U 99025ADV 25343.50552481  .00003347  00000+0  35303-2 0  9997",
        "tle_line2": "2 30406  98.6200 234.5532 0283096   8.1910 172.8241 13.59193496931223"
      },
      "geometry": {
        "type": "Point",
        "coordinates": [
          -123.16333443070148,
          -12.10417235941188
        ]
      }
    },
    {
      "type": "Feature",
      "properties": {
        "norad_id": 30409,
        "name": "FENGYUN 1C DEB",
        "group": "fengyun-1c-debris",
        "lat": 8.861960080337564,
        "lon": -29.779597043430165,
        "alt_km": 760.9578157643482,
        "timestamp": "2025-12-09T23:33:24.130887+00:00",
        "meta_object_name": "FENGYUN 1C DEB",
        "meta_object_id": "1999-025ADY",
        "meta_epoch": "2025-12-09T10:33:02.437920",
        "meta_mean_motion": 14.03716376,
        "meta_eccentricity": 0.01680211,
        "meta_inclination": 98.4735,
        "meta_ra_of_asc_node": 331.0468,
        "meta_arg_of_pericenter": 14.8723,
        "meta_mean_anomaly": 137.3568,
        "meta_ephemeris_type": 0,
        "meta_classification_type": "U",
        "meta_norad_cat_id": 30409,
        "meta_element_set_no": 999,
        "meta_rev_at_epoch": 96383,
        "meta_bstar": 0.0015343047,
        "meta_mean_motion_dot": 2.696e-05,
        "meta_mean_motion_ddot": 0,
        "tle_line1": "1 30409U 99025ADY 25343.43961155  .00002696  00000+0  15343-2 0  9992",
        "tle_line2": "2 30409  98.4735 331.0468 0168021  14.8723 137.3568 14.03716376963832"
      },
      "geometry": {
        "type": "Point",
        "coordinates": [
          -29.779597043430165,
          8.861960080337564
        ]
      }
    },
    {
      "type": "Feature",
      "properties": {
        "norad_id": 30411,
        "name": "FENGYUN 1C DEB",
        "group": "fengyun-1c-debris",
        "lat": -17.489338701347076,
        "lon": 72.00304718497598,
        "alt_km": 860.6855998387855,
        "timestamp": "2025-12-09T23:33:24.130897+00:00",
        "meta_object_name": "FENGYUN 1C DEB",
        "meta_object_id": "1999-025AEA",
        "meta_epoch": "2025-12-09T07:16:47.723232",
        "meta_mean_motion": 14.07619047,
        "meta_eccentricity": 0.0122328,
        "meta_inclination": 98.5821,
        "meta_ra_of_asc_node": 254.0858,
        "meta_arg_of_pericenter": 116.3913,
        "meta_mean_anomaly": 244.9874,
        "meta_ephemeris_type": 0,
        "meta_classification_type": "U",
        "meta_norad_cat_id": 30411,
        "meta_element_set_no": 999,
        "meta_rev_at_epoch": 95935,
        "meta_bstar": 0.0020952,
        "meta_mean_motion_dot": 3.749e-05,
        "meta_mean_motion_ddot": 0,
        "tle_line1": "1 30411U 99025AEA 25343.30333013  .00003749  00000+0  20952-2 0  9999",
        "tle_line2": "2 30411  98.5821 254.0858 0122328 116.3913 244.9874 14.07619047959356"
      },
      "geometry": {
        "type": "Point",
        "coordinates": [
          72.00304718497598,
          -17.489338701347076
        ]
      }
    },
    {
      "type": "Feature",
      "properties": {
        "norad_id": 30413,
        "name": "FENGYUN 1C DEB",
        "group": "fengyun-1c-debris",
        "lat": -17.40011094474584,
        "lon": -140.351863231701,
        "alt_km": 803.523465997816,
        "timestamp": "2025-12-09T23:33:24.130907+00:00",
        "meta_object_name": "FENGYUN 1C DEB",
        "meta_object_id": "1999-025AEC",
        "meta_epoch": "2025-12-09T04:07:43.635648",
        "meta_mean_motion": 14.32471564,
        "meta_eccentricity": 0.00456622,
        "meta_inclination": 102.0616,
        "meta_ra_of_asc_node": 214.684,
        "meta_arg_of_pericenter": 226.253,
        "meta_mean_anomaly": 263.1874,
        "meta_ephemeris_type": 0,
        "meta_classification_type": "U",
        "meta_norad_cat_id": 30413,
        "meta_element_set_no": 999,
        "meta_rev_at_epoch": 97088,
        "meta_bstar": 0.0027022342,
        "meta_mean_motion_dot": 7.34e-05,
        "meta_mean_motion_ddot": 0,
        "tle_line1": "1 30413U 99025AEC 25343.17203282  .00007340  00000+0  27022-2 0  9996",
        "tle_line2": "2 30413 102.0616 214.6840 0045662 226.2530 263.1874 14.32471564970887"
      },
      "geometry": {
        "type": "Point",
        "coordinates": [
          -140.351863231701,
          -17.40011094474584
        ]
      }
    },
    {
      "type": "Feature",
      "properties": {
        "norad_id": 30414,
        "name": "FENGYUN 1C DEB",
        "group": "fengyun-1c-debris",
        "lat": 53.170546943896525,
        "lon": 128.76234944347476,
        "alt_km": 806.1897354404891,
        "timestamp": "2025-12-09T23:33:24.130917+00:00",
        "meta_object_name": "FENGYUN 1C DEB",
        "meta_object_id": "1999-025AED",
        "meta_epoch": "2025-12-09T09:54:22.648896",
        "meta_mean_motion": 14.34079108,
        "meta_eccentricity": 0.00585357,
        "meta_inclination": 99.0812,
        "meta_ra_of_asc_node": 140.4969,
        "meta_arg_of_pericenter": 198.3555,
        "meta_mean_anomaly": 161.5516,
        "meta_ephemeris_type": 0,
        "meta_classification_type": "U",
        "meta_norad_cat_id": 30414,
        "meta_element_set_no": 999,
        "meta_rev_at_epoch": 97039,
        "meta_bstar": 0.0038263836,
        "meta_mean_motion_dot": 0.00010876,
        "meta_mean_motion_ddot": 0,
        "tle_line1": "1 30414U 99025AED 25343.41276214  .00010876  00000+0  38264-2 0  9997",
        "tle_line2": "2 30414  99.0812 140.4969 0058535 198.3555 161.5516 14.34079108970398"
      },
      "geometry": {
        "type": "Point",
        "coordinates": [
          128.76234944347476,
          53.170546943896525
        ]
      }
    },
    {
      "type": "Feature",
      "properties": {
        "norad_id": 30415,
        "name": "FENGYUN 1C DEB",
        "group": "fengyun-1c-debris",
        "lat": 64.16499607006149,
        "lon": 23.66214639790074,
        "alt_km": 1147.680263996148,
        "timestamp": "2025-12-09T23:33:24.130941+00:00",
        "meta_object_name": "FENGYUN 1C DEB",
        "meta_object_id": "1999-025AEE",
        "meta_epoch": "2025-12-09T02:20:18.199104",
        "meta_mean_motion": 13.68920321,
        "meta_eccentricity": 0.02381842,
        "meta_inclination": 99.6457,
        "meta_ra_of_asc_node": 43.3405,
        "meta_arg_of_pericenter": 278.6316,
        "meta_mean_anomaly": 111.2683,
        "meta_ephemeris_type": 0,
        "meta_classification_type": "U",
        "meta_norad_cat_id": 30415,
        "meta_element_set_no": 999,
        "meta_rev_at_epoch": 93828,
        "meta_bstar": 0.0016690341,
        "meta_mean_motion_dot": 1.709e-05,
        "meta_mean_motion_ddot": 0,
        "tle_line1": "1 30415U 99025AEE 25343.09743286  .00001709  00000+0  16690-2 0  9994",
        "tle_line2": "2 30415  99.6457  43.3405 0238184 278.6316 111.2683 13.68920321938280"
      },
      "geometry": {
        "type": "Point",
        "coordinates": [
          23.66214639790074,
          64.16499607006149
        ]
      }
    }
  ]
}